CCSDS_OMM_VERS = 2.0
CREATION_DATE  = 
ORIGINATOR     = 

OBJECT_NAME    = ATLAS CENTAUR R/B
OBJECT_ID      = 1972-065B
CENTER_NAME    = EARTH
REF_FRAME      = TEME
TIME_SYSTEM    = UTC
MEAN_ELEMENT_THEORY = SGP/SGP4

EPOCH          = 2026-03-30T13:42:20.536992
MEAN_MOTION    = 14.77747792
ECCENTRICITY   = .00335355
INCLINATION    = 35.0007
RA_OF_ASC_NODE = 183.3738
ARG_OF_PERICENTER = 187.0343
MEAN_ANOMALY   = 172.9890

EPHEMERIS_TYPE = 0
CLASSIFICATION_TYPE = U
NORAD_CAT_ID   = 6155
ELEMENT_SET_NO = 999
REV_AT_EPOCH   = 84435
BSTAR          = .24031512E-3
MEAN_MOTION_DOT = .1746E-4
MEAN_MOTION_DDOT = 0

CCSDS_OMM_VERS = 2.0
CREATION_DATE  = 
ORIGINATOR     = 

OBJECT_NAME    = SL-8 R/B
OBJECT_ID      = 1975-112B
CENTER_NAME    = EARTH
REF_FRAME      = TEME
TIME_SYSTEM    = UTC
MEAN_ELEMENT_THEORY = SGP/SGP4

EPOCH          = 2026-03-30T10:34:04.917216
MEAN_MOTION    = 14.38215531
ECCENTRICITY   = .00145817
INCLINATION    = 74.0628
RA_OF_ASC_NODE = 340.7436
ARG_OF_PERICENTER = 65.4213
MEAN_ANOMALY   = 294.8459

EPHEMERIS_TYPE = 0
CLASSIFICATION_TYPE = U
NORAD_CAT_ID   = 8459
ELEMENT_SET_NO = 999
REV_AT_EPOCH   = 63485
BSTAR          = .92990441E-4
MEAN_MOTION_DOT = .257E-5
MEAN_MOTION_DDOT = 0

CCSDS_OMM_VERS = 2.0
CREATION_DATE  = 
ORIGINATOR     = 

OBJECT_NAME    = SL-3 R/B
OBJECT_ID      = 1977-057B
CENTER_NAME    = EARTH
REF_FRAME      = TEME
TIME_SYSTEM    = UTC
MEAN_ELEMENT_THEORY = SGP/SGP4

EPOCH          = 2026-03-30T13:31:11.986752
MEAN_MOTION    = 15.46095529
ECCENTRICITY   = .00068679
INCLINATION    = 97.5793
RA_OF_ASC_NODE = 262.4160
ARG_OF_PERICENTER = 198.6965
MEAN_ANOMALY   = 161.4033

EPHEMERIS_TYPE = 0
CLASSIFICATION_TYPE = U
NORAD_CAT_ID   = 10114
ELEMENT_SET_NO = 999
REV_AT_EPOCH   = 67155
BSTAR          = .36885644E-3
MEAN_MOTION_DOT = .1799E-3
MEAN_MOTION_DDOT = 0

CCSDS_OMM_VERS = 2.0
CREATION_DATE  = 
ORIGINATOR     = 

OBJECT_NAME    = SEASAT 1
OBJECT_ID      = 1978-064A
CENTER_NAME    = EARTH
REF_FRAME      = TEME
TIME_SYSTEM    = UTC
MEAN_ELEMENT_THEORY = SGP/SGP4

EPOCH          = 2026-03-30T10:55:27.246144
MEAN_MOTION    = 14.46177550
ECCENTRICITY   = .00026653
INCLINATION    = 108.0073
RA_OF_ASC_NODE = 169.0702
ARG_OF_PERICENTER = 275.4621
MEAN_ANOMALY   = 84.6220

EPHEMERIS_TYPE = 0
CLASSIFICATION_TYPE = U
NORAD_CAT_ID   = 10967
ELEMENT_SET_NO = 999
REV_AT_EPOCH   = 50951
BSTAR          = .13601645E-3
MEAN_MOTION_DOT = .349E-5
MEAN_MOTION_DDOT = 0

CCSDS_OMM_VERS = 2.0
CREATION_DATE  = 
ORIGINATOR     = 

OBJECT_NAME    = SL-14 R/B
OBJECT_ID      = 1979-011B
CENTER_NAME    = EARTH
REF_FRAME      = TEME
TIME_SYSTEM    = UTC
MEAN_ELEMENT_THEORY = SGP/SGP4

EPOCH          = 2026-03-30T10:32:12.538464
MEAN_MOTION    = 14.91935620
ECCENTRICITY   = .00157969
INCLINATION    = 82.5212
RA_OF_ASC_NODE = 76.8752
ARG_OF_PERICENTER = 354.1972
MEAN_ANOMALY   = 5.9062

EPHEMERIS_TYPE = 0
CLASSIFICATION_TYPE = U
NORAD_CAT_ID   = 11267
ELEMENT_SET_NO = 999
REV_AT_EPOCH   = 53187
BSTAR          = .82679101E-4
MEAN_MOTION_DOT = .863E-5
MEAN_MOTION_DDOT = 0

CCSDS_OMM_VERS = 2.0
CREATION_DATE  = 
ORIGINATOR     = 

OBJECT_NAME    = SL-8 R/B
OBJECT_ID      = 1979-089B
CENTER_NAME    = EARTH
REF_FRAME      = TEME
TIME_SYSTEM    = UTC
MEAN_ELEMENT_THEORY = SGP/SGP4

EPOCH          = 2026-03-30T08:17:02.510016
MEAN_MOTION    = 14.42364009
ECCENTRICITY   = .0016705
INCLINATION    = 74.0690
RA_OF_ASC_NODE = 52.8043
ARG_OF_PERICENTER = 222.7959
MEAN_ANOMALY   = 137.1898

EPHEMERIS_TYPE = 0
CLASSIFICATION_TYPE = U
NORAD_CAT_ID   = 11574
ELEMENT_SET_NO = 999
REV_AT_EPOCH   = 43908
BSTAR          = .13802644E-3
MEAN_MOTION_DOT = .43E-5
MEAN_MOTION_DDOT = 0

CCSDS_OMM_VERS = 2.0
CREATION_DATE  = 
ORIGINATOR     = 

OBJECT_NAME    = SL-14 R/B
OBJECT_ID      = 1980-005B
CENTER_NAME    = EARTH
REF_FRAME      = TEME
TIME_SYSTEM    = UTC
MEAN_ELEMENT_THEORY = SGP/SGP4

EPOCH          = 2026-03-30T12:47:17.586816
MEAN_MOTION    = 14.90954326
ECCENTRICITY   = .00172557
INCLINATION    = 82.5111
RA_OF_ASC_NODE = 287.4599
ARG_OF_PERICENTER = 93.6656
MEAN_ANOMALY   = 266.6536

EPHEMERIS_TYPE = 0
CLASSIFICATION_TYPE = U
NORAD_CAT_ID   = 11672
ELEMENT_SET_NO = 999
REV_AT_EPOCH   = 47959
BSTAR          = .73213138E-4
MEAN_MOTION_DOT = .75E-5
MEAN_MOTION_DDOT = 0

CCSDS_OMM_VERS = 2.0
CREATION_DATE  = 
ORIGINATOR     = 

OBJECT_NAME    = SL-8 R/B
OBJECT_ID      = 1981-003B
CENTER_NAME    = EARTH
REF_FRAME      = TEME
TIME_SYSTEM    = UTC
MEAN_ELEMENT_THEORY = SGP/SGP4

EPOCH          = 2026-03-30T12:35:45.661056
MEAN_MOTION    = 15.11908774
ECCENTRICITY   = .02606811
INCLINATION    = 82.9324
RA_OF_ASC_NODE = 270.7433
ARG_OF_PERICENTER = 106.1917
MEAN_ANOMALY   = 256.8170

EPHEMERIS_TYPE = 0
CLASSIFICATION_TYPE = U
NORAD_CAT_ID   = 12139
ELEMENT_SET_NO = 999
REV_AT_EPOCH   = 31782
BSTAR          = .71043598E-3
MEAN_MOTION_DOT = .28437E-3
MEAN_MOTION_DDOT = 0

CCSDS_OMM_VERS = 2.0
CREATION_DATE  = 
ORIGINATOR     = 

OBJECT_NAME    = SL-3 R/B
OBJECT_ID      = 1981-046B
CENTER_NAME    = EARTH
REF_FRAME      = TEME
TIME_SYSTEM    = UTC
MEAN_ELEMENT_THEORY = SGP/SGP4

EPOCH          = 2026-03-30T13:06:44.494848
MEAN_MOTION    = 15.42509572
ECCENTRICITY   = .00181744
INCLINATION    = 81.2280
RA_OF_ASC_NODE = 264.6850
ARG_OF_PERICENTER = 308.2312
MEAN_ANOMALY   = 51.7294

EPHEMERIS_TYPE = 0
CLASSIFICATION_TYPE = U
NORAD_CAT_ID   = 12465
ELEMENT_SET_NO = 999
REV_AT_EPOCH   = 44164
BSTAR          = .36133952E-3
MEAN_MOTION_DOT = .15797E-3
MEAN_MOTION_DDOT = 0

CCSDS_OMM_VERS = 2.0
CREATION_DATE  = 
ORIGINATOR     = 

OBJECT_NAME    = SL-3 R/B
OBJECT_ID      = 1981-103B
CENTER_NAME    = EARTH
REF_FRAME      = TEME
TIME_SYSTEM    = UTC
MEAN_ELEMENT_THEORY = SGP/SGP4

EPOCH          = 2026-03-30T13:17:50.861760
MEAN_MOTION    = 15.21624932
ECCENTRICITY   = .00128136
INCLINATION    = 81.1612
RA_OF_ASC_NODE = 188.9567
ARG_OF_PERICENTER = 211.7966
MEAN_ANOMALY   = 148.2493

EPHEMERIS_TYPE = 0
CLASSIFICATION_TYPE = U
NORAD_CAT_ID   = 12904
ELEMENT_SET_NO = 999
REV_AT_EPOCH   = 97640
BSTAR          = .36094441E-3
MEAN_MOTION_DOT = .8193E-4
MEAN_MOTION_DDOT = 0

CCSDS_OMM_VERS = 2.0
CREATION_DATE  = 
ORIGINATOR     = 

OBJECT_NAME    = SL-3 R/B
OBJECT_ID      = 1982-013B
CENTER_NAME    = EARTH
REF_FRAME      = TEME
TIME_SYSTEM    = UTC
MEAN_ELEMENT_THEORY = SGP/SGP4

EPOCH          = 2026-03-30T13:17:27.148416
MEAN_MOTION    = 15.22201825
ECCENTRICITY   = .00236075
INCLINATION    = 81.1732
RA_OF_ASC_NODE = 136.3143
ARG_OF_PERICENTER = 109.0182
MEAN_ANOMALY   = 251.3611

EPHEMERIS_TYPE = 0
CLASSIFICATION_TYPE = U
NORAD_CAT_ID   = 13068
ELEMENT_SET_NO = 999
REV_AT_EPOCH   = 40752
BSTAR          = .2259589E-3
MEAN_MOTION_DOT = .5254E-4
MEAN_MOTION_DDOT = 0

CCSDS_OMM_VERS = 2.0
CREATION_DATE  = 
ORIGINATOR     = 

OBJECT_NAME    = SL-3 R/B
OBJECT_ID      = 1982-039B
CENTER_NAME    = EARTH
REF_FRAME      = TEME
TIME_SYSTEM    = UTC
MEAN_ELEMENT_THEORY = SGP/SGP4

EPOCH          = 2026-03-30T12:41:03.410016
MEAN_MOTION    = 15.10199059
ECCENTRICITY   = .00284992
INCLINATION    = 81.1569
RA_OF_ASC_NODE = 191.9335
ARG_OF_PERICENTER = 255.4090
MEAN_ANOMALY   = 104.3974

EPHEMERIS_TYPE = 0
CLASSIFICATION_TYPE = U
NORAD_CAT_ID   = 13154
ELEMENT_SET_NO = 999
REV_AT_EPOCH   = 38478
BSTAR          = .23340192E-3
MEAN_MOTION_DOT = .3871E-4
MEAN_MOTION_DDOT = 0

